[{"OBJECT_NAME":"OBJECT D","OBJECT_ID":"2024-174D","EPOCH":"2026-03-10T00:15:10.483200","MEAN_MOTION":15.28039787,"ECCENTRICITY":0.00110644,"INCLINATION":97.4441,"RA_OF_ASC_NODE":80.4677,"ARG_OF_PERICENTER":212.9968,"MEAN_ANOMALY":147.0582,"EPHEMERIS_TYPE":0,"CLASSIFICATION_TYPE":"U","NORAD_CAT_ID":61241,"ELEMENT_SET_NO":999,"REV_AT_EPOCH":8076,"BSTAR":0.00036340099,"MEAN_MOTION_DOT":9.884e-5,"MEAN_MOTION_DDOT":0},{"OBJECT_NAME":"STARLINK-32366","OBJECT_ID":"2024-184V","EPOCH":"2026-03-09T04:03:37.434528","MEAN_MOTION":15.30213666,"ECCENTRICITY":0.00013544,"INCLINATION":53.1624,"RA_OF_ASC_NODE":16.6139,"ARG_OF_PERICENTER":137.4615,"MEAN_ANOMALY":222.6491,"EPHEMERIS_TYPE":0,"CLASSIFICATION_TYPE":"U","NORAD_CAT_ID":61551,"ELEMENT_SET_NO":999,"REV_AT_EPOCH":7842,"BSTAR":-0.00016550885,"MEAN_MOTION_DOT":-5.26e-5,"MEAN_MOTION_DDOT":0}]
